{
  "type": "FeatureCollection",
  "features": [
    {
      "type": "Feature",
      "properties": {
        "norad_id": 43564,
        "name": "GSAT0221 (GALILEO 25)",
        "group": "galileo",
        "lat": 33.20588394147749,
        "lon": 141.970446578688,
        "alt_km": 23233.656402369026,
        "timestamp": "2025-12-09T05:43:20.988802+00:00",
        "meta_object_name": "GSAT0221 (GALILEO 25)",
        "meta_object_id": "2018-060A",
        "meta_epoch": "2025-12-06T15:57:28.986048",
        "meta_mean_motion": 1.70475679,
        "meta_eccentricity": 0.00066883,
        "meta_inclination": 57.2291,
        "meta_ra_of_asc_node": 346.9817,
        "meta_arg_of_pericenter": 281.5609,
        "meta_mean_anomaly": 78.3858,
        "meta_ephemeris_type": 0,
        "meta_classification_type": "U",
        "meta_norad_cat_id": 43564,
        "meta_element_set_no": 999,
        "meta_rev_at_epoch": 4588,
        "meta_bstar": 0,
        "meta_mean_motion_dot": -8.1e-07,
        "meta_mean_motion_ddot": 0,
        "tle_line1": "1 43564U 18060A   25340.66491882 -.00000081  00000+0  00000+0 0  9993",
        "tle_line2": "2 43564  57.2291 346.9817 0006688 281.5609  78.3858  1.70475679 45887"
      },
      "geometry": {
        "type": "Point",
        "coordinates": [
          141.970446578688,
          33.20588394147749
        ]
      }
    },
    {
      "type": "Feature",
      "properties": {
        "norad_id": 43565,
        "name": "GSAT0222 (GALILEO 26)",
        "group": "galileo",
        "lat": 4.049575676511247,
        "lon": -10.473140989431046,
        "alt_km": 23225.75423221181,
        "timestamp": "2025-12-09T05:43:20.988814+00:00",
        "meta_object_name": "GSAT0222 (GALILEO 26)",
        "meta_object_id": "2018-060B",
        "meta_epoch": "2025-12-08T15:27:21.492000",
        "meta_mean_motion": 1.70475431,
        "meta_eccentricity": 0.0006174,
        "meta_inclination": 57.2322,
        "meta_ra_of_asc_node": 346.9312,
        "meta_arg_of_pericenter": 262.3002,
        "meta_mean_anomaly": 97.6467,
        "meta_ephemeris_type": 0,
        "meta_classification_type": "U",
        "meta_norad_cat_id": 43565,
        "meta_element_set_no": 999,
        "meta_rev_at_epoch": 4596,
        "meta_bstar": 0,
        "meta_mean_motion_dot": -8.6e-07,
        "meta_mean_motion_ddot": 0,
        "tle_line1": "1 43565U 18060B   25342.64399875 -.00000086  00000+0  00000+0 0  9998",
        "tle_line2": "2 43565  57.2322 346.9312 0006174 262.3002  97.6467  1.70475431 45962"
      },
      "geometry": {
        "type": "Point",
        "coordinates": [
          -10.473140989431046,
          4.049575676511247
        ]
      }
    },
    {
      "type": "Feature",
      "properties": {
        "norad_id": 43566,
        "name": "GSAT0219 (GALILEO 23)",
        "group": "galileo",
        "lat": -39.391927066606776,
        "lon": -161.14956266363745,
        "alt_km": 23217.374689909073,
        "timestamp": "2025-12-09T05:43:20.988825+00:00",
        "meta_object_name": "GSAT0219 (GALILEO 23)",
        "meta_object_id": "2018-060C",
        "meta_epoch": "2025-12-07T16:36:27.181728",
        "meta_mean_motion": 1.7047564,
        "meta_eccentricity": 0.00057893,
        "meta_inclination": 57.2316,
        "meta_ra_of_asc_node": 346.9585,
        "meta_arg_of_pericenter": 285.9629,
        "meta_mean_anomaly": 73.992,
        "meta_ephemeris_type": 0,
        "meta_classification_type": "U",
        "meta_norad_cat_id": 43566,
        "meta_element_set_no": 999,
        "meta_rev_at_epoch": 4592,
        "meta_bstar": 0,
        "meta_mean_motion_dot": -8.4e-07,
        "meta_mean_motion_ddot": 0,
        "tle_line1": "1 43566U 18060C   25341.69198127 -.00000084  00000+0  00000+0 0  9998",
        "tle_line2": "2 43566  57.2316 346.9585 0005789 285.9629  73.9920  1.70475640 45924"
      },
      "geometry": {
        "type": "Point",
        "coordinates": [
          -161.14956266363745,
          -39.391927066606776
        ]
      }
    },
    {
      "type": "Feature",
      "properties": {
        "norad_id": 43567,
        "name": "GSAT0220 (GALILEO 24)",
        "group": "galileo",
        "lat": 57.04831987915933,
        "lon": 83.31224824259604,
        "alt_km": 23233.59815105138,
        "timestamp": "2025-12-09T05:43:20.988836+00:00",
        "meta_object_name": "GSAT0220 (GALILEO 24)",
        "meta_object_id": "2018-060D",
        "meta_epoch": "2025-12-07T07:49:54.342624",
        "meta_mean_motion": 1.70475454,
        "meta_eccentricity": 0.00061757,
        "meta_inclination": 57.2312,
        "meta_ra_of_asc_node": 346.9681,
        "meta_arg_of_pericenter": 282.9528,
        "meta_mean_anomaly": 76.9979,
        "meta_ephemeris_type": 0,
        "meta_classification_type": "U",
        "meta_norad_cat_id": 43567,
        "meta_element_set_no": 999,
        "meta_rev_at_epoch": 4590,
        "meta_bstar": 0,
        "meta_mean_motion_dot": -8.3e-07,
        "meta_mean_motion_ddot": 0,
        "tle_line1": "1 43567U 18060D   25341.32632341 -.00000083  00000+0  00000+0 0  9999",
        "tle_line2": "2 43567  57.2312 346.9681 0006175 282.9528  76.9979  1.70475454 45901"
      },
      "geometry": {
        "type": "Point",
        "coordinates": [
          83.31224824259604,
          57.04831987915933
        ]
      }
    },
    {
      "type": "Feature",
      "properties": {
        "norad_id": 49809,
        "name": "GSAT0223 (GALILEO 27)",
        "group": "galileo",
        "lat": -3.517676234991071,
        "lon": 169.07522623661757,
        "alt_km": 23217.328557822955,
        "timestamp": "2025-12-09T05:43:20.988863+00:00",
        "meta_object_name": "GSAT0223 (GALILEO 27)",
        "meta_object_id": "2021-116A",
        "meta_epoch": "2025-12-08T12:32:15.823104",
        "meta_mean_motion": 1.70475635,
        "meta_eccentricity": 0.00046796,
        "meta_inclination": 57.2201,
        "meta_ra_of_asc_node": 346.8263,
        "meta_arg_of_pericenter": 251.0345,
        "meta_mean_anomaly": 213.7248,
        "meta_ephemeris_type": 0,
        "meta_classification_type": "U",
        "meta_norad_cat_id": 49809,
        "meta_element_set_no": 999,
        "meta_rev_at_epoch": 2493,
        "meta_bstar": 0,
        "meta_mean_motion_dot": -8.6e-07,
        "meta_mean_motion_ddot": 0,
        "tle_line1": "1 49809U 21116A   25342.52240536 -.00000086  00000+0  00000+0 0  9997",
        "tle_line2": "2 49809  57.2201 346.8263 0004679 251.0345 213.7248  1.70475635 24930"
      },
      "geometry": {
        "type": "Point",
        "coordinates": [
          169.07522623661757,
          -3.517676234991071
        ]
      }
    },
    {
      "type": "Feature",
      "properties": {
        "norad_id": 49810,
        "name": "GSAT0224 (GALILEO 28)",
        "group": "galileo",
        "lat": -48.602725688817074,
        "lon": -60.16780791550676,
        "alt_km": 23218.67416910065,
        "timestamp": "2025-12-09T05:43:20.988875+00:00",
        "meta_object_name": "GSAT0224 (GALILEO 28)",
        "meta_object_id": "2021-116B",
        "meta_epoch": "2025-12-07T13:56:35.698272",
        "meta_mean_motion": 1.7047563,
        "meta_eccentricity": 0.00040182,
        "meta_inclination": 57.2213,
        "meta_ra_of_asc_node": 346.8506,
        "meta_arg_of_pericenter": 254.5241,
        "meta_mean_anomaly": 105.0474,
        "meta_ephemeris_type": 0,
        "meta_classification_type": "U",
        "meta_norad_cat_id": 49810,
        "meta_element_set_no": 999,
        "meta_rev_at_epoch": 2493,
        "meta_bstar": 0,
        "meta_mean_motion_dot": -8.4e-07,
        "meta_mean_motion_ddot": 0,
        "tle_line1": "1 49810U 21116B   25341.58096873 -.00000084  00000+0  00000+0 0  9995",
        "tle_line2": "2 49810  57.2213 346.8506 0004018 254.5241 105.0474  1.70475630 24934"
      },
      "geometry": {
        "type": "Point",
        "coordinates": [
          -60.16780791550676,
          -48.602725688817074
        ]
      }
    },
    {
      "type": "Feature",
      "properties": {
        "norad_id": 59598,
        "name": "GSAT0225 (GALILEO 29)",
        "group": "galileo",
        "lat": -50.63027186237853,
        "lon": 47.833245773344814,
        "alt_km": 23230.350558769205,
        "timestamp": "2025-12-09T05:43:20.988887+00:00",
        "meta_object_name": "GSAT0225 (GALILEO 29)",
        "meta_object_id": "2024-079A",
        "meta_epoch": "2025-12-07T07:17:21.433056",
        "meta_mean_motion": 1.70474562,
        "meta_eccentricity": 0.00020328,
        "meta_inclination": 54.9984,
        "meta_ra_of_asc_node": 106.4468,
        "meta_arg_of_pericenter": 173.4457,
        "meta_mean_anomaly": 8.4253,
        "meta_ephemeris_type": 0,
        "meta_classification_type": "U",
        "meta_norad_cat_id": 59598,
        "meta_element_set_no": 999,
        "meta_rev_at_epoch": 1004,
        "meta_bstar": 0,
        "meta_mean_motion_dot": 7e-08,
        "meta_mean_motion_ddot": 0,
        "tle_line1": "1 59598U 24079A   25341.30372029  .00000007  00000+0  00000+0 0  9994",
        "tle_line2": "2 59598  54.9984 106.4468 0002032 173.4457   8.4253  1.70474562 10047"
      },
      "geometry": {
        "type": "Point",
        "coordinates": [
          47.833245773344814,
          -50.63027186237853
        ]
      }
    }
  ]
}